{"type": "FeatureCollection", "features": [ {"type": "Feature", "properties": {"norad_id": 31715, "name": "FENGYUN 1C DEB", "group": "fengyun-1c-debris", "lat": -24.110555759686843, "lon": 6.209846592934587, "alt_km": 797.8850728251882, "timestamp": "2025-12-26T03:50:12.376909+00:00", "meta": {"OBJECT_NAME": "FENGYUN 1C DEB", "OBJECT_ID": "1999-025CDN", "EPOCH": "2025-12-24T06:16:15.667680", "MEAN_MOTION": 14.5224974, "ECCENTRICITY": 0.01870642, "INCLINATION": 99.2925, "RA_OF_ASC_NODE": 188.3112, "ARG_OF_PERICENTER": 85.1659, "MEAN_ANOMALY": 277.0864, "EPHEMERIS_TYPE": 0, "CLASSIFICATION_TYPE": "U", "NORAD_CAT_ID": 31715, "ELEMENT_SET_NO": 999, "REV_AT_EPOCH": 61884, "BSTAR": 0.00077241375, "MEAN_MOTION_DOT": 3.884e-05, "MEAN_MOTION_DDOT": 0}, "tle": {"line1": "1 31715U 99025CDN 25358.26129245  .00003884  00000+0  77241-3 0  9992", "line2": "2 31715  99.2925 188.3112 0187064  85.1659 277.0864 14.52249740618848"}}, "geometry": {"type": "Point", "coordinates": [6.209846592934587, -24.110555759686843]}}, {"type": "Feature", "properties": {"norad_id": 31716, "name": "FENGYUN 1C DEB", "group": "fengyun-1c-debris", "lat": -40.272383176545915, "lon": -94.32170521367551, "alt_km": 893.727952043113, "timestamp": "2025-12-26T03:50:12.376919+00:00", "meta": {"OBJECT_NAME": "FENGYUN 1C DEB", "OBJECT_ID": "1999-025CDP", "EPOCH": "2025-12-24T04:50:25.649664", "MEAN_MOTION": 14.03659339, "ECCENTRICITY": 0.0131051, "INCLINATION": 98.5543, "RA_OF_ASC_NODE": 256.5089, "ARG_OF_PERICENTER": 59.2389, "MEAN_ANOMALY": 91.9884, "EPHEMERIS_TYPE": 0, "CLASSIFICATION_TYPE": "U", "NORAD_CAT_ID": 31716, "ELEMENT_SET_NO": 999, "REV_AT_EPOCH": 94280, "BSTAR": 0.0016512578, "MEAN_MOTION_DOT": 2.761e-05, "MEAN_MOTION_DDOT": 0}, "tle": {"line1": "1 31716U 99025CDP 25358.20168576  .00002761  00000+0  16513-2 0  9994", "line2": "2 31716  98.5543 256.5089 0131051  59.2389  91.9884 14.03659339942801"}}, "geometry": {"type": "Point", "coordinates": [-94.32170521367551, -40.272383176545915]}}, {"type": "Feature", "properties": {"norad_id": 31720, "name": "FENGYUN 1C DEB", "group": "fengyun-1c-debris", "lat": 15.272200338533763, "lon": 96.07070024286968, "alt_km": 645.2869380978791, "timestamp": "2025-12-26T03:50:12.376929+00:00", "meta": {"OBJECT_NAME": "FENGYUN 1C DEB", "OBJECT_ID": "1999-025CDT", "EPOCH": "2025-12-24T16:50:31.302816", "MEAN_MOTION": 14.719334, "ECCENTRICITY": 0.01003361, "INCLINATION": 99.0481, "RA_OF_ASC_NODE": 271.9563, "ARG_OF_PERICENTER": 86.8005, "MEAN_ANOMALY": 274.4673, "EPHEMERIS_TYPE": 0, "CLASSIFICATION_TYPE": "U", "NORAD_CAT_ID": 31720, "ELEMENT_SET_NO": 999, "REV_AT_EPOCH": 98412, "BSTAR": 0.00085182682, "MEAN_MOTION_DOT": 5.716e-05, "MEAN_MOTION_DDOT": 0}, "tle": {"line1": "1 31720U 99025CDT 25358.70175119  .00005716  00000+0  85183-3 0  9998", "line2": "2 31720  99.0481 271.9563 0100336  86.8005 274.4673 14.71933400984128"}}, "geometry": {"type": "Point", "coordinates": [96.07070024286968, 15.272200338533763]}}, {"type": "Feature", "properties": {"norad_id": 31721, "name": "FENGYUN 1C DEB", "group": "fengyun-1c-debris", "lat": -16.923272139119952, "lon": 157.099340824955, "alt_km": 830.8386850045099, "timestamp": "2025-12-26T03:50:12.376939+00:00", "meta": {"OBJECT_NAME": "FENGYUN 1C DEB", "OBJECT_ID": "1999-025CDU", "EPOCH": "2025-12-25T04:30:13.281408", "MEAN_MOTION": 13.73788771, "ECCENTRICITY": 0.03177259, "INCLINATION": 99.7824, "RA_OF_ASC_NODE": 339.1125, "ARG_OF_PERICENTER": 151.3323, "MEAN_ANOMALY": 277.3613, "EPHEMERIS_TYPE": 0, "CLASSIFICATION_TYPE": "U", "NORAD_CAT_ID": 31721, "ELEMENT_SET_NO": 999, "REV_AT_EPOCH": 67557, "BSTAR": 0.00032349284, "MEAN_MOTION_DOT": 3.91e-06, "MEAN_MOTION_DDOT": 0}, "tle": {"line1": "1 31721U 99025CDU 25359.18765372  .00000391  00000+0  32349-3 0  9998", "line2": "2 31721  99.7824 339.1125 0317725 151.3323 277.3613 13.73788771675573"}}, "geometry": {"type": "Point", "coordinates": [157.099340824955, -16.923272139119952]}}, {"type": "Feature", "properties": {"norad_id": 31724, "name": "FENGYUN 1C DEB", "group": "fengyun-1c-debris", "lat": 48.838536408649404, "lon": -3.86317903965165, "alt_km": 817.4412135074544, "timestamp": "2025-12-26T03:50:12.376949+00:00", "meta": {"OBJECT_NAME": "FENGYUN 1C DEB", "OBJECT_ID": "1999-025CDX", "EPOCH": "2025-12-23T17:36:33.492672", "MEAN_MOTION": 14.49304028, "ECCENTRICITY": 0.01518759, "INCLINATION": 97.8543, "RA_OF_ASC_NODE": 2.9609, "ARG_OF_PERICENTER": 208.1423, "MEAN_ANOMALY": 151.1503, "EPHEMERIS_TYPE": 0, "CLASSIFICATION_TYPE": "U", "NORAD_CAT_ID": 31724, "ELEMENT_SET_NO": 999, "REV_AT_EPOCH": 64651, "BSTAR": 0.0021805146, "MEAN_MOTION_DOT": 9.606e-05, "MEAN_MOTION_DDOT": 0}, "tle": {"line1": "1 31724U 99025CDX 25357.73372098  .00009606  00000+0  21805-2 0  9991", "line2": "2 31724  97.8543   2.9609 0151875 208.1423 151.1503 14.49304028646511"}}, "geometry": {"type": "Point", "coordinates": [-3.86317903965165, 48.838536408649404]}}, {"type": "Feature", "properties": {"norad_id": 31725, "name": "FENGYUN 1C DEB", "group": "fengyun-1c-debris", "lat": -45.017399811752576, "lon": -135.99855701330367, "alt_km": 821.3084590637336, "timestamp": "2025-12-26T03:50:12.376959+00:00", "meta": {"OBJECT_NAME": "FENGYUN 1C DEB", "OBJECT_ID": "1999-025CDY", "EPOCH": "2025-12-17T21:05:21.230880", "MEAN_MOTION": 12.79203585, "ECCENTRICITY": 0.06944571, "INCLINATION": 99.1801, "RA_OF_ASC_NODE": 207.8945, "ARG_OF_PERICENTER": 323.3807, "MEAN_ANOMALY": 32.1667, "EPHEMERIS_TYPE": 0, "CLASSIFICATION_TYPE": "U", "NORAD_CAT_ID": 31725, "ELEMENT_SET_NO": 999, "REV_AT_EPOCH": 86547, "BSTAR": 0.0022154725, "MEAN_MOTION_DOT": 1.348e-05, "MEAN_MOTION_DDOT": 0}, "tle": {"line1": "1 31725U 99025CDY 25351.87871795  .00001348  00000+0  22155-2 0  9993", "line2": "2 31725  99.1801 207.8945 0694457 323.3807  32.1667 12.79203585865471"}}, "geometry": {"type": "Point", "coordinates": [-135.99855701330367, -45.017399811752576]}}, {"type": "Feature", "properties": {"norad_id": 31727, "name": "FENGYUN 1C DEB", "group": "fengyun-1c-debris", "lat": -14.171090149378355, "lon": -69.64551746676682, "alt_km": 778.3492783071661, "timestamp": "2025-12-26T03:50:12.376969+00:00", "meta": {"OBJECT_NAME": "FENGYUN 1C DEB", "OBJECT_ID": "1999-025CEA", "EPOCH": "2025-12-25T19:17:35.956896", "MEAN_MOTION": 14.37159668, "ECCENTRICITY": 0.0032898, "INCLINATION": 98.8656, "RA_OF_ASC_NODE": 112.2465, "ARG_OF_PERICENTER": 299.956, "MEAN_ANOMALY": 213.939, "EPHEMERIS_TYPE": 0, "CLASSIFICATION_TYPE": "U", "NORAD_CAT_ID": 31727, "ELEMENT_SET_NO": 999, "REV_AT_EPOCH": 71856, "BSTAR": 0.0021324, "MEAN_MOTION_DOT": 6.339e-05, "MEAN_MOTION_DDOT": 0}, "tle": {"line1": "1 31727U 99025CEA 25359.80388839  .00006339  00000+0  21324-2 0  9990", "line2": "2 31727  98.8656 112.2465 0032898 299.9560 213.9390 14.37159668718569"}}, "geometry": {"type": "Point", "coordinates": [-69.64551746676682, -14.171090149378355]}}, {"type": "Feature", "properties": {"norad_id": 31731, "name": "FENGYUN 1C DEB", "group": "fengyun-1c-debris", "lat": 12.678032792156412, "lon": -128.35688472342602, "alt_km": 760.6917099588436, "timestamp": "2025-12-26T03:50:12.376979+00:00", "meta": {"OBJECT_NAME": "FENGYUN 1C DEB", "OBJECT_ID": "1999-025CEE", "EPOCH": "2025-11-27T02:07:07.827456", "MEAN_MOTION": 14.40063792, "ECCENTRICITY": 0.00116613, "INCLINATION": 99.3084, "RA_OF_ASC_NODE": 17.9462, "ARG_OF_PERICENTER": 144.9647, "MEAN_ANOMALY": 215.2308, "EPHEMERIS_TYPE": 0, "CLASSIFICATION_TYPE": "U", "NORAD_CAT_ID": 31731, "ELEMENT_SET_NO": 999, "REV_AT_EPOCH": 95605, "BSTAR": 0.0018623031, "MEAN_MOTION_DOT": 5.831e-05, "MEAN_MOTION_DDOT": 0}, "tle": {"line1": "1 31731U 99025CEE 25331.08828504  .00005831  00000+0  18623-2 0  9997", "line2": "2 31731  99.3084  17.9462 0011661 144.9647 215.2308 14.40063792956051"}}, "geometry": {"type": "Point", "coordinates": [-128.35688472342602, 12.678032792156412]}}, {"type": "Feature", "properties": {"norad_id": 31732, "name": "FENGYUN 1C DEB", "group": "fengyun-1c-debris", "lat": 5.1072048420137195, "lon": -144.90161023278077, "alt_km": 829.1415045910644, "timestamp": "2025-12-26T03:50:12.376990+00:00", "meta": {"OBJECT_NAME": "FENGYUN 1C DEB", "OBJECT_ID": "1999-025CEF", "EPOCH": "2025-12-25T13:24:25.703712", "MEAN_MOTION": 14.12269748, "ECCENTRICITY": 0.0040186, "INCLINATION": 98.5713, "RA_OF_ASC_NODE": 33.7511, "ARG_OF_PERICENTER": 208.3854, "MEAN_ANOMALY": 151.5129, "EPHEMERIS_TYPE": 0, "CLASSIFICATION_TYPE": "U", "NORAD_CAT_ID": 31732, "ELEMENT_SET_NO": 999, "REV_AT_EPOCH": 64511, "BSTAR": 0.00031815, "MEAN_MOTION_DOT": 5.48e-06, "MEAN_MOTION_DDOT": 0}, "tle": {"line1": "1 31732U 99025CEF 25359.55863083  .00000548  00000+0  31815-3 0  9990", "line2": "2 31732  98.5713  33.7511 0040186 208.3854 151.5129 14.12269748645115"}}, "geometry": {"type": "Point", "coordinates": [-144.90161023278077, 5.1072048420137195]}}, {"type": "Feature", "properties": {"norad_id": 31734, "name": "FENGYUN 1C DEB", "group": "fengyun-1c-debris", "lat": 12.423502122060238, "lon": 173.84246889627252, "alt_km": 866.1195711509299, "timestamp": "2025-12-26T03:50:12.376999+00:00", "meta": {"OBJECT_NAME": "FENGYUN 1C DEB", "OBJECT_ID": "1999-025CEH", "EPOCH": "2025-12-17T05:38:30.357312", "MEAN_MOTION": 14.2902964, "ECCENTRICITY": 0.01035042, "INCLINATION": 98.4953, "RA_OF_ASC_NODE": 343.2584, "ARG_OF_PERICENTER": 354.3593, "MEAN_ANOMALY": 5.6416, "EPHEMERIS_TYPE": 0, "CLASSIFICATION_TYPE": "U", "NORAD_CAT_ID": 31734, "ELEMENT_SET_NO": 999, "REV_AT_EPOCH": 96515, "BSTAR": 0.00042036115, "MEAN_MOTION_DOT": 1.084e-05, "MEAN_MOTION_DDOT": 0}, "tle": {"line1": "1 31734U 99025CEH 25351.23507358  .00001084  00000+0  42036-3 0  9992", "line2": "2 31734  98.4953 343.2584 0103504 354.3593   5.6416 14.29029640965157"}}, "geometry": {"type": "Point", "coordinates": [173.84246889627252, 12.423502122060238]}}]}